{"spkid": "20528804", "covariance": {"labels": ["e", "q", "tp", "node", "peri", "i"], "elements": [{"label": "e", "value": ".7112545441749986", "title": "eccentricity", "units": null, "sigma": 5.36093820064295e-08, "name": "e"}, {"label": "q", "units": "au", "value": ".534430651161016", "title": "perihelion distance", "name": "q", "sigma": 9.63113605336769e-08}, {"title": "time of perihelion passage", "value": "2459523.499071843464", "units": "TDB", "name": "tp", "sigma": 5.05571803178877e-05, "label": "tp"}, {"label": "node", "units": "deg", "title": "longitude of the ascending node", "value": "131.4558113667379", "sigma": 2.51395719614802e-05, "name": "om"}, {"label": "peri", "units": "deg", "title": "argument of perihelion", "value": "85.5961142804193", "sigma": 2.40437164975577e-05, "name": "w"}, {"label": "i", "title": "inclination", "value": "13.02772125406663", "units": "deg", "sigma": 6.29066922262952e-06, "name": "i"}], "data": [["2.873965839111285E-15", "-5.15993911845648E-15", "1.858718293726597E-12", "2.725524861389207E-13", "1.727585220868682E-13", "-1.995746716067143E-15"], ["-5.15993911845648E-15", "9.275878167847893E-15", "-3.238570294119532E-12", "-4.694411244575418E-13", "-3.065018719375661E-13", "1.780402360704154E-15"], ["1.858718293726597E-12", "-3.238570294119532E-12", "2.556028481695413E-9", "3.819538288272483E-10", "2.03746290406124E-10", "-1.793194982169886E-11"], ["2.725524861389207E-13", "-4.694411244575418E-13", "3.819538288272483E-10", "6.319980784064397E-10", "-5.269244180131515E-10", "-2.942893928982706E-11"], ["1.727585220868682E-13", "-3.065018719375661E-13", "2.03746290406124E-10", "-5.269244180131515E-10", "5.781003030149284E-10", "2.412457885425044E-11"], ["-1.995746716067143E-15", "1.780402360704154E-15", "-1.793194982169886E-11", "-2.942893928982706E-11", "2.412457885425044E-11", "3.957251926853828E-11"]], "epoch": "2459136.5"}, "elements": [{"label": "e", "title": "eccentricity", "value": ".712480381072074", "units": null, "name": "e", "sigma": "5.3531E-8"}, {"label": "a", "units": "au", "value": "1.849626016927546", "title": "semi-major axis", "sigma": "1.5496E-8", "name": "a"}, {"name": "q", "sigma": "9.618E-8", "units": "au", "title": "perihelion distance", "value": ".5318037675461855", "label": "q"}, {"name": "i", "sigma": "6.2923E-6", "units": "deg", "title": "inclination; angle with respect to x-y ecliptic plane", "value": "13.02281671136022", "label": "i"}, {"value": "131.1203092081958", "title": "longitude of the ascending node", "units": "deg", "sigma": "2.5212E-5", "name": "om", "label": "node"}, {"label": "peri", "sigma": "2.4077E-5", "name": "w", "units": "deg", "value": "85.93529558123146", "title": "argument of perihelion"}, {"units": "deg", "value": "296.7227331041054", "title": "mean anomaly", "sigma": "2.7285E-5", "name": "ma", "label": "M"}, {"label": "tp", "units": "TDB", "value": "2461361.998884567622", "title": "time of perihelion passage", "name": "tp", "sigma": "7.1548E-5"}, {"sigma": "1.1547E-5", "name": "per", "units": "d", "value": "918.8070423458171", "title": "sidereal orbital period", "label": "period"}, {"label": "n", "units": "deg/d", "title": "mean motion", "value": ".391812408273319", "name": "n", "sigma": "4.9239E-9"}, {"label": "Q", "sigma": "2.6537E-8", "name": "ad", "title": "aphelion distance", "value": "3.167448266308906", "units": "au"}], "epoch": "2461200.5"}